UMBRA-07                
1 58297U 23174AT  26068.71829358  .00012685  00000+0  84614-3 0  9990
2 58297  97.3902 128.3323 0004131  75.5473 284.6213 15.07174057128425
STARLINK-33945          
1 64154U 25112J   26068.71101271  .00002524  00000+0  17902-3 0  9997
2 64154  97.6042 130.0528 0000447  79.0155 281.1122 15.05656806 43861
